OBJECT_NAME,OBJECT_ID,EPOCH,MEAN_MOTION,ECCENTRICITY,INCLINATION,RA_OF_ASC_NODE,ARG_OF_PERICENTER,MEAN_ANOMALY,EPHEMERIS_TYPE,CLASSIFICATION_TYPE,NORAD_CAT_ID,ELEMENT_SET_NO,REV_AT_EPOCH,BSTAR,MEAN_MOTION_DOT,MEAN_MOTION_DDOT
STARLINK-37970,2026-147C,2026-07-11T01:16:25.262688,15.80873914,.0000454,97.2849,228.2033,6.5246,353.6028,0,U,69706,999,320,.26444E-3,.50939E-3,0
STARLINK-37975,2026-147D,2026-07-11T04:17:38.910912,15.80873120,.0001719,97.2835,228.3377,121.9611,238.1825,0,U,69707,999,322,.95767E-3,.187791E-2,0
STARLINK-37972,2026-147E,2026-07-11T11:52:20.269920,15.80885680,.0000542,97.2830,228.6741,112.4806,247.6520,0,U,69708,999,327,.98437E-3,.193262E-2,0
STARLINK-37963,2026-147F,2026-07-11T11:51:15.274656,15.80896900,.0000219,97.2815,228.6734,55.2481,304.8808,0,U,69709,999,327,.12599E-2,.249142E-2,0
STARLINK-37969,2026-147G,2026-07-11T11:50:10.292352,15.80927637,.0000876,97.2841,228.6773,100.5057,259.6310,0,U,69710,999,327,.13733E-2,.27269E-2,0
STARLINK-37956,2026-147H,2026-07-11T11:49:05.590848,15.80926130,.0000821,97.2841,228.6773,56.2437,303.8909,0,U,69711,999,327,.14613E-2,.290753E-2,0
STARLINK-38043,2026-147J,2026-07-11T01:09:55.959840,15.80845166,.0001629,97.2943,228.2153,308.0508,52.0612,0,U,69712,999,320,.10093E-2,.197907E-2,0
STARLINK-38020,2026-147K,2026-07-11T04:11:07.857600,15.80958446,.0001798,97.2836,228.3431,103.6356,256.5112,0,U,69713,999,322,.94537E-3,.186064E-2,0
STARLINK-38059,2026-147L,2026-07-11T11:45:50.109984,15.80816825,.0001282,97.2838,228.6811,102.0454,258.0958,0,U,69714,999,327,.79888E-3,.155647E-2,0
STARLINK-38061,2026-147M,2026-07-11T02:37:50.139840,15.80829508,.0001924,97.2843,228.2770,122.4881,237.6574,0,U,69715,999,321,.10509E-2,.206108E-2,0
STARLINK-38060,2026-147N,2026-07-11T11:43:40.765728,15.80821286,.0001362,97.2819,228.6884,132.1371,228.0013,0,U,69716,999,327,.18039E-2,.360134E-2,0
STARLINK-38040,2026-147P,2026-07-11T01:04:31.139040,15.81340137,.0001978,97.3058,228.2266,227.9554,132.1546,0,U,69717,999,320,.14268E-2,.289276E-2,0
STARLINK-37989,2026-147Q,2026-07-10T12:53:35.554848,15.81725931,.000176,97.2849,227.6798,163.9316,196.2009,0,U,69718,999,312,.15133E-2,.313152E-2,0
STARLINK-38039,2026-147R,2026-07-10T12:53:07.505088,15.81001041,.0001294,97.2855,227.6808,335.4308,24.6899,0,U,69719,999,312,.17183E-2,.345258E-2,0
STARLINK-38003,2026-147S,2026-07-11T11:39:20.815776,15.80842311,.0001313,97.2835,228.6872,132.6001,227.5378,0,U,69720,999,327,.94682E-3,.185345E-2,0
STARLINK-38014,2026-147T,2026-07-11T01:00:11.484576,15.81323070,.0001776,97.2851,228.2188,231.4262,128.6847,0,U,69721,999,320,.13729E-2,.277735E-2,0
STARLINK-37915,2026-147U,2026-07-10T08:00:03.000384,15.80848892,.00007821,97.2849,227.4705,79.8886,215.6105,0,U,69722,999,305,-.31324161E-3,-.5982E-3,0
STARLINK-38007,2026-147V,2026-07-11T01:02:33.355104,15.81170684,.0003798,97.2866,228.2161,285.9585,74.1265,0,U,69723,999,320,.96172E-3,.191296E-2,0
STARLINK-38008,2026-147W,2026-07-11T02:28:06.519936,15.80728333,.0001439,97.2848,228.2879,110.5846,249.5576,0,U,69724,999,321,.26078E-2,.528788E-2,0
STARLINK-38021,2026-147X,2026-07-11T02:27:00.732384,15.80859234,.0001604,97.2835,228.2837,151.9217,208.2138,0,U,69725,999,321,.95577E-3,.187287E-2,0
STARLINK-38015,2026-147Y,2026-07-11T00:00:02.000160,15.80800867,.0001208,97.2850,228.1843,94.4992,49.4386,0,U,69726,999,316,.10898E-3,.20767E-3,0
STARLINK-38010,2026-147Z,2026-07-11T12:00:02.000160,15.75199558,.0001203,97.2844,228.6886,106.4731,306.6782,0,U,69727,999,324,-.52946E-3,-.78413E-3,0
SXM-11,2026-148A,2026-07-11T04:39:00.608256,1.00471175,.0001165,0.1241,265.9539,38.0982,293.8842,0,U,69728,999,28,0,-.9E-7,0
HAIYANG-2E,2026-149A,2026-07-11T12:46:16.794048,13.79314925,.0001573,99.3452,199.5062,95.6545,264.4786,0,U,69737,999,132,-.536E-4,-.99E-6,0
CZ-4B R/B,2026-149B,2026-07-11T11:36:03.296736,14.30066702,.0198296,99.3217,200.2368,340.7811,18.5962,0,U,69738,999,160,.37748E-4,.63E-6,0
STARLINK-38033,2026-150A,2026-07-11T12:00:02.000160,15.80820313,.0001269,97.2848,30.6495,77.0015,57.5067,0,U,69739,999,270,.11735E-3,.22397E-3,0
STARLINK-38076,2026-150B,2026-07-11T12:00:02.000160,15.75216656,.0000958,97.2847,30.6363,75.6721,27.8721,0,U,69740,999,270,-.38995E-3,-.57965E-3,0
STARLINK-38074,2026-150C,2026-07-11T12:00:02.000160,15.80816683,.000137,97.2846,30.6566,78.1347,71.0498,0,U,69741,999,270,.21155E-3,.40571E-3,0
STARLINK-38041,2026-150D,2026-07-11T12:00:02.000160,15.80839334,.0000943,97.2847,30.6587,107.1971,45.9264,0,U,69742,999,270,-.23282E-4,-.4604E-4,0
STARLINK-38087,2026-150E,2026-07-11T12:00:02.000160,15.80825026,.0001335,97.2846,30.6596,87.8478,69.9247,0,U,69743,999,270,.128E-3,.24456E-3,0
