STARLINK-37970          
1 69706U 26147C   26192.05307017  .00050939  00000+0  26444-3 0  9999
2 69706  97.2849 228.2033 0000454   6.5246 353.6028 15.80873914  3203
STARLINK-37975          
1 69707U 26147D   26192.17892258  .00187791  00000+0  95767-3 0  9990
2 69707  97.2835 228.3377 0001719 121.9611 238.1825 15.80873120  3227
STARLINK-37972          
1 69708U 26147E   26192.49467905  .00193262  00000+0  98437-3 0  9990
2 69708  97.2830 228.6741 0000542 112.4806 247.6520 15.80885680  3271
STARLINK-37963          
1 69709U 26147F   26192.49392679  .00249142  00000+0  12599-2 0  9999
2 69709  97.2815 228.6734 0000219  55.2481 304.8808 15.80896900  3273
STARLINK-37969          
1 69710U 26147G   26192.49317468  .00272690  00000+0  13733-2 0  9999
2 69710  97.2841 228.6773 0000876 100.5057 259.6310 15.80927637  3276
STARLINK-37956          
1 69711U 26147H   26192.49242582  .00290753  00000+0  14613-2 0  9992
2 69711  97.2841 228.6773 0000821  56.2437 303.8909 15.80926130  3279
STARLINK-38043          
1 69712U 26147J   26192.04856435  .00197907  00000+0  10093-2 0  9997
2 69712  97.2943 228.2153 0001629 308.0508  52.0612 15.80845166  3201
STARLINK-38020          
1 69713U 26147K   26192.17439650  .00186064  00000+0  94537-3 0  9996
2 69713  97.2836 228.3431 0001798 103.6356 256.5112 15.80958446  3224
STARLINK-38059          
1 69714U 26147L   26192.49016331  .00155647  00000+0  79888-3 0  9994
2 69714  97.2838 228.6811 0001282 102.0454 258.0958 15.80816825  3276
STARLINK-38061          
1 69715U 26147M   26192.10960810  .00206108  00000+0  10509-2 0  9996
2 69715  97.2843 228.2770 0001924 122.4881 237.6574 15.80829508  3219
STARLINK-38060          
1 69716U 26147N   26192.48866627  .00360134  00000+0  18039-2 0  9995
2 69716  97.2819 228.6884 0001362 132.1371 228.0013 15.80821286  3274
STARLINK-38040          
1 69717U 26147P   26192.04480485  .00289276  00000+0  14268-2 0  9999
2 69717  97.3058 228.2266 0001978 227.9554 132.1546 15.81340137  3201
STARLINK-37989          
1 69718U 26147Q   26191.53721707  .00313152  00000+0  15133-2 0  9991
2 69718  97.2849 227.6798 0001760 163.9316 196.2009 15.81725931  3121
STARLINK-38039          
1 69719U 26147R   26191.53689242  .00345258  00000+0  17183-2 0  9998
2 69719  97.2855 227.6808 0001294 335.4308  24.6899 15.81001041  3120
STARLINK-38003          
1 69720U 26147S   26192.48565759  .00185345  00000+0  94682-3 0  9990
2 69720  97.2835 228.6872 0001313 132.6001 227.5378 15.80842311  3275
STARLINK-38014          
1 69721U 26147T   26192.04179959  .00277735  00000+0  13729-2 0  9993
2 69721  97.2851 228.2188 0001776 231.4262 128.6847 15.81323070  3202
STARLINK-37915          
1 69722U 26147U   26191.33336806 -.00059820  00000+0 -31324-3 0  9998
2 69722  97.2849 227.4705 0000782  79.8886 215.6105 15.80848892  3058
STARLINK-38007          
1 69723U 26147V   26192.04344161  .00191296  00000+0  96172-3 0  9995
2 69723  97.2866 228.2161 0003798 285.9585  74.1265 15.81170684  3209
STARLINK-38008          
1 69724U 26147W   26192.10285324  .00528788  00000+0  26078-2 0  9995
2 69724  97.2848 228.2879 0001439 110.5846 249.5576 15.80728333  3212
STARLINK-38021          
1 69725U 26147X   26192.10209181  .00187287  00000+0  95577-3 0  9999
2 69725  97.2835 228.2837 0001604 151.9217 208.2138 15.80859234  3219
STARLINK-38015          
1 69726U 26147Y   26192.00002315  .00020767  00000+0  10898-3 0  9991
2 69726  97.2850 228.1843 0001208  94.4992  49.4386 15.80800867  3166
STARLINK-38010          
1 69727U 26147Z   26192.50002315 -.00078413  00000+0 -52946-3 0  9990
2 69727  97.2844 228.6886 0001203 106.4731 306.6782 15.75199558  3241
SXM-11                  
1 69728U 26148A   26192.19375704 -.00000009  00000+0  00000+0 0  9997
2 69728   0.1241 265.9539 0001165  38.0982 293.8842  1.00471175   286
HAIYANG-2E              
1 69737U 26149A   26192.53213882 -.00000099  00000+0 -53600-4 0  9993
2 69737  99.3452 199.5062 0001573  95.6545 264.4786 13.79314925  1325
CZ-4B R/B               
1 69738U 26149B   26192.48337149  .00000063  00000+0  37748-4 0  9995
2 69738  99.3217 200.2368 0198296 340.7811  18.5962 14.30066702  1603
STARLINK-38033          
1 69739U 26150A   26192.50002315  .00022397  00000+0  11735-3 0  9996
2 69739  97.2848  30.6495 0001269  77.0015  57.5067 15.80820313  2709
STARLINK-38076          
1 69740U 26150B   26192.50002315 -.00057965  00000+0 -38995-3 0  9996
2 69740  97.2847  30.6363 0000958  75.6721  27.8721 15.75216656  2706
STARLINK-38074          
1 69741U 26150C   26192.50002315  .00040571  00000+0  21155-3 0  9990
2 69741  97.2846  30.6566 0001370  78.1347  71.0498 15.80816683  2706
STARLINK-38041          
1 69742U 26150D   26192.50002315 -.00004604  00000+0 -23282-4 0  9994
2 69742  97.2847  30.6587 0000943 107.1971  45.9264 15.80839334  2701
STARLINK-38087          
1 69743U 26150E   26192.50002315  .00024456  00000+0  12800-3 0  9993
2 69743  97.2846  30.6596 0001335  87.8478  69.9247 15.80825026  2703
